NORAD_CAT_ID,OBJECT_NAME,OBJECT_TYPE,EPOCH,MEAN_MOTION,ECCENTRICITY,INCLINATION,RA_OF_ASC_NODE,ARG_OF_PERICENTER,MEAN_ANOMALY,BSTAR,MEAN_MOTION_DOT,MEAN_MOTION_DDOT,TLE_LINE0,TLE_LINE1,TLE_LINE2,SEMIMAJOR_AXIS,PERIOD,APOGEE,PERIGEE,DECAYED
52850.0,STARLINK-4187,PAYLOAD,2023-04-28 02:58:20,15.08840905,8.37e-05,53.2177,52.3371,120.111,239.9965,0.00035826,5.419e-05,0.0,0 STARLINK-4187,1 52850U 22062W   23118.12384998  .00005419  00000-0  35826-3 0  9997,2 52850  53.2177  52.3371 0000837 120.1110 239.9965 15.08840905 47792,6917.878,95.437,540.322,539.164,0.0
52850.0,STARLINK-4187,PAYLOAD,2023-04-29 04:24:31,15.08849045,7.96e-05,53.2184,47.5742,87.7666,272.3418,-9.7683e-06,-4.43e-06,0.0,0 STARLINK-4187,1 52850U 22062W   23119.18369843 -.00000443  00000-0 -97683-5 0  9991,2 52850  53.2184  47.5742 0000796  87.7666 272.3418 15.08849045 48447,6917.853,95.437,540.268,539.167,0.0
52850.0,STARLINK-4187,PAYLOAD,2023-04-29 05:59:54,15.08848656,8.85e-05,53.2183,47.2788,93.0423,267.067,6.6081e-06,-1.83e-06,0.0,0 STARLINK-4187,1 52850U 22062W   23119.24993810 -.00000183  00000-0  66081-5 0  9993,2 52850  53.2183  47.2788 0000885  93.0423 267.0670 15.08848656 47967,6917.854,95.437,540.331,539.107,0.0
52850.0,STARLINK-4187,PAYLOAD,2023-04-29 18:43:00,15.08823194,0.0001059,53.2171,44.8996,107.6909,252.4199,0.00015295,2.146e-05,0.0,0 STARLINK-4187,1 52850U 22062W   23119.77986155  .00002146  00000-0  15295-3 0  9994,2 52850  53.2171  44.8996 0001059 107.6909 252.4199 15.08823194 48531,6917.932,95.439,540.529,539.064,0.0
52850.0,STARLINK-4187,PAYLOAD,2023-04-30 02:39:55,15.08850871,0.0001135,53.2174,43.414,84.1018,276.0103,-6.497e-05,-1.322e-05,0.0,0 STARLINK-4187,1 52850U 22062W   23120.11105526 -.00001322  00000-0 -64970-4 0  9991,2 52850  53.2174  43.4140 0001135  84.1018 276.0103 15.08850871 48589,6917.847,95.437,540.497,538.927,0.0
52850.0,STARLINK-4187,PAYLOAD,2023-05-01 00:55:19,15.08836013,0.0001055,53.2174,39.2504,87.1141,272.9972,-2.0552e-05,-6.15e-06,0.0,0 STARLINK-4187,1 52850U 22062W   23121.03842427 -.00000615  00000-0 -20552-4 0  9993,2 52850  53.2174  39.2504 0001055  87.1141 272.9972 15.08836013 48724,6917.893,95.438,540.487,539.028,0.0
52850.0,STARLINK-4187,PAYLOAD,2023-05-01 18:24:33,15.08840549,0.0001066,53.2176,35.9801,86.0298,274.0816,8.235e-05,1.023e-05,0.0,0 STARLINK-4187,1 52850U 22062W   23121.76705856  .00001023  00000-0  82350-4 0  9993,2 52850  53.2176  35.9801 0001066  86.0298 274.0816 15.08840549 48349,6917.879,95.438,540.481,539.006,0.0
52850.0,STARLINK-4187,PAYLOAD,2023-05-01 23:10:42,15.08847028,0.0001189,53.2192,35.0914,71.023,289.0891,8.9581e-05,1.138e-05,0.0,0 STARLINK-4187,1 52850U 22062W   23121.96577485  .00001138  00000-0  89581-4 0  9990,2 52850  53.2192  35.0914 0001189  71.0230 289.0891 15.08847028 48864,6917.859,95.437,540.546,538.901,0.0
52850.0,STARLINK-4187,PAYLOAD,2023-05-02 03:56:51,15.08857129,0.0001065,53.2184,34.1956,77.1389,282.9722,0.00014164,1.968e-05,0.0,0 STARLINK-4187,1 52850U 22062W   23122.16448545  .00001968  00000-0  14164-3 0  9992,2 52850  53.2184  34.1956 0001065  77.1389 282.9722 15.08857129 48897,6917.828,95.436,540.43,538.956,0.0
52850.0,STARLINK-4187,PAYLOAD,2023-05-02 21:26:07,15.08840306,0.0001101,53.2192,30.924,82.1683,277.9434,1.2471e-05,-8.9e-07,0.0,0 STARLINK-4187,1 52850U 22062W   23122.89313905 -.00000089  00000-0  12471-4 0  9997,2 52850  53.2192  30.9240 0001101  82.1683 277.9434 15.08840306 48512,6917.879,95.438,540.506,538.983,0.0
52850.0,STARLINK-4187,PAYLOAD,2023-05-03 03:47:39,15.08844077,0.0001029,53.2179,29.7356,96.082,264.0289,6.7716e-05,7.9e-06,0.0,0 STARLINK-4187,1 52850U 22062W   23123.15809451  .00000790  00000-0  67716-4 0  9993,2 52850  53.2179  29.7356 0001029  96.0820 264.0289 15.08844077 49040,6917.868,95.437,540.445,539.021,0.0
52850.0,STARLINK-4187,PAYLOAD,2023-05-03 18:06:08,15.08842744,9.03e-05,53.2179,27.0573,79.4177,280.6917,-0.00012966,-2.351e-05,0.0,0 STARLINK-4187,1 52850U 22062W   23123.75426266 -.00002351  00000-0 -12966-3 0  9991,2 52850  53.2179  27.0573 0000903  79.4177 280.6917 15.08842744 49133,6917.872,95.437,540.362,539.112,0.0
52850.0,STARLINK-4187,PAYLOAD,2023-05-03 21:16:54,15.08842277,0.0001145,53.2187,26.4637,100.6603,259.4518,-8.9204e-05,-1.707e-05,0.0,0 STARLINK-4187,1 52850U 22062W   23123.88674104 -.00001707  00000-0 -89204-4 0  9995,2 52850  53.2187  26.4637 0001145 100.6603 259.4518 15.08842277 48665,6917.873,95.437,540.531,538.946,0.0
52850.0,STARLINK-4187,PAYLOAD,2023-05-04 09:59:59,15.08845129,0.0001356,53.2192,24.0849,75.507,284.6073,-5.8826e-05,-1.224e-05,0.0,0 STARLINK-4187,1 52850U 22062W   23124.41665885 -.00001224  00000-0 -58826-4 0  9991,2 52850  53.2192  24.0849 0001356  75.5070 284.6073 15.08845129 48746,6917.865,95.437,540.668,538.792,0.0
52850.0,STARLINK-4187,PAYLOAD,2023-05-04 21:07:41,15.08837401,0.0001112,53.2182,22.0042,101.3351,258.7766,-1.2531e-06,-3.08e-06,0.0,0 STARLINK-4187,1 52850U 22062W   23124.88034344 -.00000308  00000-0 -12531-5 0  9998,2 52850  53.2182  22.0042 0001112 101.3351 258.7766 15.08837401 48811,6917.888,95.438,540.523,538.984,0.0
52850.0,STARLINK-4187,PAYLOAD,2023-05-05 00:18:27,15.08838317,0.0001136,53.2177,21.4097,101.6507,258.4612,1.1012e-06,-2.7e-06,0.0,0 STARLINK-4187,1 52850U 22062W   23125.01282255 -.00000270  00000-0  11012-5 0  9990,2 52850  53.2177  21.4097 0001136 101.6507 258.4612 15.08838317 49321,6917.886,95.438,540.536,538.965,0.0
52850.0,STARLINK-4187,PAYLOAD,2023-05-05 01:53:50,15.08843933,0.0001039,53.2182,21.1121,98.4593,261.6517,4.9249e-05,4.96e-06,0.0,0 STARLINK-4187,1 52850U 22062W   23125.07905739  .00000496  00000-0  49249-4 0  9996,2 52850  53.2182  21.1121 0001039  98.4593 261.6517 15.08843933 49333,6917.868,95.437,540.452,539.015,0.0
52850.0,STARLINK-4187,PAYLOAD,2023-05-05 20:58:29,15.08834768,0.0001001,53.2179,17.5436,94.1005,266.0101,3.6116e-05,2.87e-06,0.0,0 STARLINK-4187,1 52850U 22062W   23125.87394759  .00000287  00000-0  36116-4 0  9995,2 52850  53.2179  17.5436 0001001  94.1005 266.0101 15.08834768 48969,6917.896,95.438,540.454,539.069,0.0
52850.0,STARLINK-4187,PAYLOAD,2023-05-06 00:09:15,15.08835193,0.0001076,53.2181,16.9486,88.4438,271.6677,4.73e-05,4.65e-06,0.0,0 STARLINK-4187,1 52850U 22062W   23126.00642787  .00000465  00000-0  47300-4 0  9993,2 52850  53.2181  16.9486 0001076  88.4438 271.6677 15.08835193 49478,6917.895,95.438,540.504,539.016,0.0
52850.0,STARLINK-4187,PAYLOAD,2023-05-06 01:44:38,15.08839069,0.000105,53.2181,16.6514,84.9961,275.1151,7.0282e-05,8.31e-06,0.0,0 STARLINK-4187,1 52850U 22062W   23126.07266572  .00000831  00000-0  70282-4 0  9996,2 52850  53.2181  16.6514 0001050  84.9961 275.1151 15.08839069 48999,6917.883,95.438,540.475,539.022,0.0
52850.0,STARLINK-4187,PAYLOAD,2023-05-07 00:00:01,15.08848385,0.0001132,53.2178,12.4883,80.7079,279.4041,0.00013248,1.822e-05,0.0,0 STARLINK-4187,1 52850U 22062W   23127.00001912  .00001822  00000-0  13248-3 0  9994,2 52850  53.2178  12.4883 0001132  80.7079 279.4041 15.08848385 49620,6917.855,95.437,540.503,538.937,0.0
52850.0,STARLINK-4187,PAYLOAD,2023-05-07 20:40:03,15.08834514,0.0001039,53.2166,8.6259,82.1926,277.9184,-6.9776e-07,-2.99e-06,0.0,0 STARLINK-4187,1 52850U 22062W   23127.86115474 -.00000299  00000-0 -69776-6 0  9996,2 52850  53.2166   8.6259 0001039  82.1926 277.9184 15.08834514 49758,6917.897,95.438,540.481,539.043,0.0
52850.0,STARLINK-4187,PAYLOAD,2023-05-07 22:15:26,15.08834506,0.0001026,53.217,8.3278,81.3615,278.7493,-5.8759e-07,-2.97e-06,0.0,0 STARLINK-4187,1 52850U 22062W   23127.92739497 -.00000297  00000-0 -58759-6 0  9997,2 52850  53.2170   8.3278 0001026  81.3615 278.7493 15.08834506 49273,6917.897,95.438,540.472,539.052,0.0
52850.0,STARLINK-4187,PAYLOAD,2023-05-08 09:23:08,15.08842244,0.0001044,53.2174,6.2451,93.1333,266.9778,6.0517e-05,6.76e-06,0.0,0 STARLINK-4187,1 52850U 22062W   23128.39106891  .00000676  00000-0  60517-4 0  9997,2 52850  53.2174   6.2451 0001044  93.1333 266.9778 15.08842244 49830,6917.874,95.437,540.461,539.016,0.0
52850.0,STARLINK-4187,PAYLOAD,2023-05-08 20:30:49,15.0885425,0.0001123,53.2177,4.1636,75.5011,284.6106,9.2168e-05,1.18e-05,0.0,0 STARLINK-4187,1 52850U 22062W   23128.85474028  .00001180  00000-0  92168-4 0  9996,2 52850  53.2177   4.1636 0001123  75.5011 284.6106 15.08854250 49900,6917.837,95.437,540.479,538.925,0.0
52850.0,STARLINK-4187,PAYLOAD,2023-05-08 22:06:12,15.08857755,0.0001168,53.2171,3.8665,80.6651,279.4473,0.00010615,1.403e-05,0.0,0 STARLINK-4187,1 52850U 22062W   23128.92097779  .00001403  00000-0  10615-3 0  9992,2 52850  53.2171   3.8665 0001168  80.6651 279.4473 15.08857755 49427,6917.826,95.436,540.499,538.883,0.0
52850.0,STARLINK-4187,PAYLOAD,2023-05-08 23:41:35,15.08860856,0.0001151,53.217,3.5693,85.7036,274.4088,0.00014003,1.943e-05,0.0,0 STARLINK-4187,1 52850U 22062W   23128.98721494  .00001943  00000-0  14003-3 0  9990,2 52850  53.2170   3.5693 0001151  85.7036 274.4088 15.08860856 49433,6917.817,95.436,540.478,538.885,0.0
52850.0,STARLINK-4187,PAYLOAD,2023-05-09 21:57:00,15.0884314,0.0001156,53.2165,359.4056,79.0645,281.0477,0.00018394,2.641e-05,0.0,0 STARLINK-4187,1 52850U 22062W   23129.91458960  .00002641  00000-0  18394-3 0  9992,2 52850  53.2165 359.4056 0001156  79.0645 281.0477 15.08843140 49578,6917.871,95.437,540.535,538.936,0.0
52850.0,STARLINK-4187,PAYLOAD,2023-05-10 21:47:47,15.08853166,0.0001105,53.2164,354.9419,82.2671,277.8447,0.00018005,2.58e-05,0.0,0 STARLINK-4187,1 52850U 22062W   23130.90818349  .00002580  00000-0  18005-3 0  9995,2 52850  53.2164 354.9419 0001105  82.2671 277.8447 15.08853166 49725,6917.84,95.437,540.47,538.941,0.0
52850.0,STARLINK-4187,PAYLOAD,2023-05-10 23:23:10,15.08853839,0.0001045,53.2169,354.6449,81.5872,278.5239,0.00022941,3.366e-05,0.0,0 STARLINK-4187,1 52850U 22062W   23130.97442267  .00003366  00000-0  22941-3 0  9991,2 52850  53.2169 354.6449 0001045  81.5872 278.5239 15.08853839 50229,6917.838,95.437,540.426,538.98,0.0
